OBJECT_NAME,OBJECT_ID,EPOCH,MEAN_MOTION,ECCENTRICITY,INCLINATION,RA_OF_ASC_NODE,ARG_OF_PERICENTER,MEAN_ANOMALY,EPHEMERIS_TYPE,CLASSIFICATION_TYPE,NORAD_CAT_ID,ELEMENT_SET_NO,REV_AT_EPOCH,BSTAR,MEAN_MOTION_DOT,MEAN_MOTION_DDOT
ONEWEB-0574,2023-043T,2026-06-25T03:21:27.525024,13.21824576,.0002039,87.9257,242.3934,93.0429,267.0939,0,U,56063,999,15932,.72206E-4,.43E-6,0
ONEWEB-0575,2023-043U,2026-06-25T03:16:15.043008,13.16594594,.0002103,87.9092,227.1891,84.5221,275.6150,0,U,56064,999,16001,.22443E-4,.21E-6,0
ONEWEB-0576,2023-043V,2026-06-25T04:38:19.025664,13.16594557,.0002125,87.9093,227.1860,90.7095,269.4279,0,U,56065,999,16001,.4567E-4,.3E-6,0
ONEWEB-0577,2023-043W,2026-06-25T02:58:00.882048,13.16593917,.0001924,87.9093,227.1973,73.9196,286.2146,0,U,56066,999,16003,.22539E-3,.99E-6,0
ONEWEB-0578,2023-043X,2026-06-24T21:35:04.627968,13.21824812,.0002311,87.9252,242.4384,93.5758,266.5640,0,U,56067,999,15925,.18143E-3,.88E-6,0
ONEWEB-0579,2023-043Y,2026-06-25T04:38:58.519104,13.21827153,.0001864,87.9257,242.3770,103.3760,256.7582,0,U,56068,999,15930,.64231E-4,.4E-6,0
ONEWEB-0581,2023-043Z,2026-06-25T03:07:07.260096,13.16593176,.0001816,87.9094,227.2072,80.1092,280.0243,0,U,56069,999,16000,.88432E-4,.47E-6,0
ONEWEB-0609,2023-043AA,2026-06-25T04:01:02.625600,13.15549174,.0002065,87.9000,257.6218,101.3681,258.7681,0,U,56070,999,15748,-.23779E-3,-.77E-6,0
ONEWEB-0613,2023-043AB,2026-06-25T03:57:36.885600,13.15547315,.0001868,87.9002,257.6345,107.4188,252.7147,0,U,56071,999,15748,-.3753E-4,-.1E-7,0
ONEWEB-0630,2023-043AC,2026-06-24T04:06:59.617440,13.15547163,.0001879,87.9006,257.8043,106.0861,254.0476,0,U,56072,999,15734,-.2646514E-3,-.87E-6,0
ONEWEB-0632,2023-043AD,2026-06-24T04:00:09.171648,13.15548963,.0001895,87.9000,257.8228,95.7632,264.3715,0,U,56073,999,15734,-.14139104E-3,-.4E-6,0
ONEWEB-0633,2023-043AE,2026-06-25T03:34:49.042272,13.15547596,.0002035,87.9009,257.6034,112.4143,247.7203,0,U,56074,999,15745,.26053E-3,.111E-5,0
ONEWEB-0634,2023-043AF,2026-06-24T05:20:00.919104,13.15549267,.00023249,87.8999,257.8279,100.4410,259.6982,0,U,56075,999,15732,.43732392E-3,.177E-5,0
ONEWEB-0635,2023-043AG,2026-06-24T05:13:09.278400,13.15547201,.00018705,87.9010,257.7919,92.6560,267.4784,0,U,56076,999,15735,.37281907E-3,.153E-5,0
ONEWEB-0636,2023-043AH,2026-06-24T05:01:44.956704,13.15550045,.0001905,87.9005,257.7994,93.1690,266.9658,0,U,56077,999,15733,.31562526E-3,.132E-5,0
ONEWEB-0637,2023-043AJ,2026-06-25T04:36:25.487424,13.15549554,.0002182,87.8998,257.6199,93.2313,266.9067,0,U,56078,999,15748,-.7517E-4,-.15E-6,0
ONEWEB-0647,2023-043AK,2026-06-25T04:29:35.222208,13.15549099,.0001869,87.8997,257.6333,99.3922,260.7420,0,U,56079,999,15747,-.19106E-3,-.59E-6,0
ONEWEB-0651,2023-043AL,2026-06-25T04:22:44.086080,13.15549392,.0002026,87.8997,257.6277,92.8503,267.2859,0,U,56080,999,15867,-.23968E-4,.4E-7,0
ONEWEB-0718,2023-043AM,2026-06-25T04:15:53.237664,13.15546774,.0002504,87.9003,257.6103,104.9983,255.1425,0,U,56081,999,15748,-.33818E-3,-.114E-5,0
ONEWEB-0561,2023-068A,2026-06-23T13:28:11.122176,13.20774809,.00016707,87.9195,273.1730,93.9779,266.1545,0,U,56710,999,15034,.33321976E-3,.148E-5,0
ONEWEB-0668,2023-068B,2026-06-25T04:20:04.869888,13.16594968,.0002571,87.9090,227.1853,93.5043,266.6382,0,U,56711,999,15283,.89314E-4,.47E-6,0
ONEWEB-0676,2023-068C,2026-06-25T04:31:28.608384,13.16593361,.0001886,87.9089,227.1898,88.1255,272.0091,0,U,56712,999,15275,.12284E-3,.6E-6,0
ONEWEB-0677,2023-068D,2026-06-24T07:22:07.375584,13.20770618,.00021818,87.9197,273.0160,90.3610,269.7773,0,U,56713,999,15074,.48578058E-4,.33E-6,0
ONEWEB-0678,2023-068E,2026-06-25T03:30:15.263136,13.15548426,.0001808,87.9012,257.6085,104.7801,255.3530,0,U,56714,999,15033,.36034E-3,.148E-5,0
ONEWEB-0679,2023-068F,2026-06-25T03:32:11.079744,13.16593084,.0002437,87.9093,227.1892,84.8146,275.3263,0,U,56715,999,15277,-.39062E-4,-.2E-7,0
ONEWEB-0680,2023-068G,2026-06-25T04:41:22.242048,13.21824846,.0002576,87.9255,242.3783,91.9122,268.2307,0,U,56716,999,15215,-.20943E-4,.4E-7,0
ONEWEB-0681,2023-068H,2026-06-25T04:13:31.424160,13.21825320,.0001887,87.9290,242.3868,46.3180,313.8110,0,U,56717,999,15214,-.8808E-2,-.3623E-4,0
ONEWEB-0682,2023-068J,2026-06-24T04:20:41.587296,13.15549373,.00025362,87.9004,257.8012,94.6941,265.4479,0,U,56718,999,15037,-.27954963E-3,-.92E-6,0
ONEWEB-0683,2023-068K,2026-06-25T04:38:42.556704,13.15549091,.0002259,87.9007,257.5991,98.5013,261.6374,0,U,56719,999,15047,-.77956E-4,-.17E-6,0
ONEWEB-0684,2023-068L,2026-06-24T05:06:19.876320,13.15548325,.000195,87.9004,257.7846,139.5423,220.5853,0,U,56720,999,15017,.35246252E-3,.146E-5,0
ONEWEB-0686,2023-068M,2026-06-25T04:24:38.262816,13.16594894,.0002356,87.9081,227.2046,102.6137,257.5257,0,U,56721,999,15276,-.23845E-5,.12E-6,0
ONEWEB-0694,2023-068N,2026-06-25T04:33:45.216288,13.16594513,.0002487,87.9101,227.1696,93.1585,266.9831,0,U,56722,999,15282,.11146E-3,.55E-6,0
ONEWEB-0696,2023-068P,2026-06-24T04:04:42.802176,13.15546973,.00015456,87.9002,257.8308,107.9887,252.1411,0,U,56723,999,15028,-.10613393E-3,-.27E-6,0
ONEWEB-0703,2023-068Q,2026-06-24T04:18:22.611168,13.15547179,.00011421,87.8998,257.8101,102.6415,257.4843,0,U,56724,999,15017,-.31310585E-3,-.105E-5,0
ONEWEB-0721,2023-068R,2026-06-25T03:50:03.429024,13.22470350,.0001856,86.6764,82.9721,77.9042,282.2299,0,U,56725,999,15899,.17787E-3,.89E-6,0
ONEWEB-0015,2024-188A,2026-06-25T02:12:06.265152,13.11416321,.0002011,87.8882,19.5191,71.1105,289.0240,0,U,61594,999,8549,.16582E-2,.6E-5,0
ONEWEB-0687,2024-188B,2026-06-25T01:15:10.971648,13.17648886,.0002292,87.9128,4.3112,83.4334,276.7058,0,U,61595,999,8693,.33281E-3,.142E-5,0
ONEWEB-0688,2024-188C,2026-06-25T00:07:08.385024,13.17649713,.000233,87.9130,4.3202,57.4815,302.6541,0,U,61596,999,8692,.20587E-3,.93E-6,0
ONEWEB-0689,2024-188D,2026-06-25T01:11:02.150016,13.11415138,.0002122,87.8896,19.4867,90.0173,270.1198,0,U,61597,999,8548,-.10882E-2,-.373E-5,0
ONEWEB-0690,2024-188E,2026-06-25T01:25:41.982816,13.11417282,.000119,87.8891,19.4959,87.2807,272.8457,0,U,61598,999,8566,-.10955E-2,-.376E-5,0
ONEWEB-0691,2024-188F,2026-06-25T01:18:22.324320,13.11418251,.0002047,87.8899,19.4066,77.5753,282.5603,0,U,61599,999,8551,-.12863E-2,-.443E-5,0
ONEWEB-0692,2024-188G,2026-06-25T01:47:41.240832,13.11418408,.0002184,87.8882,19.5143,107.8578,252.2788,0,U,61600,999,8550,.37899E-3,.147E-5,0
ONEWEB-0693,2024-188H,2026-06-25T00:24:09.137088,13.17648709,.0001097,87.9124,4.3378,80.1488,279.9767,0,U,61601,999,8691,.28506E-4,.24E-6,0
ONEWEB-0695,2024-188J,2026-06-25T01:13:29.589024,13.11416924,.0002241,87.8878,19.5106,97.3845,262.7537,0,U,61602,999,8549,-.12284E-2,-.423E-5,0
ONEWEB-0697,2024-188K,2026-06-25T00:10:01.898688,13.11417777,.0002082,87.8884,19.5100,108.6296,251.5058,0,U,61603,999,8547,.13205E-2,.481E-5,0
ONEWEB-0698,2024-188L,2026-06-25T01:28:08.522400,13.11417793,.000142,87.8880,19.5134,127.0828,233.0430,0,U,61604,999,8550,-.12248E-2,-.421E-5,0
ONEWEB-0699,2024-188M,2026-06-25T03:45:14.815872,13.10397309,.0001728,87.8817,34.6782,109.1562,250.9753,0,U,61605,999,8435,-.78315E-2,-.2721E-4,0
ONEWEB-0700,2024-188N,2026-06-25T03:47:42.551232,13.10388309,.0002224,87.8842,34.5886,101.1748,258.9629,0,U,61606,999,8434,-.84814E-2,-.2948E-4,0
ONEWEB-0701,2024-188P,2026-06-25T00:32:12.052608,13.10362040,.0002009,87.8819,34.7071,110.4371,249.6972,0,U,61607,999,8433,.35732E-2,.126E-4,0
ONEWEB-0702,2024-188Q,2026-06-25T02:34:04.411200,13.11414529,.0002418,87.8898,19.4111,110.2396,249.8992,0,U,61608,999,8552,.84347E-3,.312E-5,0
ONEWEB-0704,2024-188R,2026-06-25T03:55:01.751808,13.10382689,.0002461,87.8828,34.6661,107.7428,252.3968,0,U,61609,999,8433,-.47207E-2,-.1635E-4,0
ONEWEB-0705,2024-188S,2026-06-25T02:12:23.334336,13.10366088,.0002831,87.8834,34.6866,92.2102,267.9350,0,U,61610,999,7649,-.40668E-2,-.1407E-4,0
ONEWEB-0706,2024-188T,2026-06-25T03:40:23.431008,13.10393552,.0002264,87.8819,34.6789,105.3935,254.7443,0,U,61611,999,8442,-.1136E-1,-.3952E-4,0
ONEWEB-0707,2024-188U,2026-06-25T03:50:09.158208,13.10385912,.0002281,87.8831,34.6718,97.1634,262.9753,0,U,61612,999,8436,-.71075E-2,-.2468E-4,0
ONEWEB-0708,2024-188V,2026-06-25T02:27:05.213088,13.10358220,.0002323,87.8825,34.7010,79.1747,280.9642,0,U,61613,999,8433,.82082E-2,.2878E-4,0
